#dP2022  5  3  0  0  0.00000000      97 __u+U IGS14 FIT  IAC
## 2208 172800.00000000   900.00000000 59702 0.0000000000000
+  115   C06C07C08C09C10C11C12C13C14C16C19C20C21C22C23C24C25
+        C26C27C28C29C30C32C33C34C35C36C37C38C39C40C41C42C43
+        C44C45C46E02E03E04E05E07E08E09E10E11E12E13E14E15E18
+        E19E21E24E25E26E27E30E31E33E34E36G01G02G03G04G05G06
+        G07G08G09G10G12G13G14G15G16G17G18G19G20G21G22G23G24
+        G25G26G27G28G29G30G31G32J02J03R01R02R03R04R05R07R08
+        R09R11R12R13R14R15R17R18R19R20R21R22R24  0  0  0  0
++         0  0  0  0  0  0  0  0  0  0  0  0  0  0  0  0  0
++         0  0  0  0  0  0  0  0  0  0  0  0  0  0  0  0  0
++         0  0  0  0  0  0  0  0  0  0  0  0  0  0  0  0  0
++         0  0  0  0  0  0  0  0  0  0  0  0  0  0  0  0  0
++         0  0  0  0  0  0  0  0  0  0  0  0  0  0  0  0  0
++         0  0  0  0  0  0  0  0  0  0  0  0  0  0  0  0  0
++         0  0  0  0  0  0  0  0  0  0  0  0  0  0  0  0  0
%c M  cc GPS ccc cccc cccc cccc cccc ccccc ccccc ccccc ccccc
%c cc cc ccc ccc cccc cccc cccc cccc ccccc ccccc ccccc ccccc
%f  1.2500000  1.025000000  0.00000000000  0.000000000000000
%f  0.0000000  0.000000000  0.00000000000  0.000000000000000
%i    0    0    0    0      0      0      0      0         0
%i    0    0    0    0      0      0      0      0         0
/* INFORMATION & ANALYSIS CENTER (IAC)            FINAL DATA
/* S/V CLOCKS ARE ALIGNED TO GNSS TIME                      
/* G:C1WC2W R:C1PC2P E:C1XC5X C:C2IC6I J:C1CC2S             
/* PCV:IGS14_2196 OL/AL:FES2004  NONE     YN ORB:CoN CLK:CoN
*  2022 05 03  5 30  0.00000000
PC06  -1309.240492  31621.539831 -27742.483910    -90.265580
PC07 -15945.886425  27441.660540  27689.306653   -117.383455
PC08 -14302.019933  39705.772834  -1749.766425    292.625815
PC09   6319.616531  35616.594710 -20865.883344   -752.181847
PC10  -6429.442458  27990.656420  31011.349626    133.991588
PC11 -20306.206439  -6507.809220  18046.003172    328.905018
PC12 -18812.150468 -20449.669550   2560.213846   -621.489764
PC13  -8211.031503  40359.730058  -9502.384673    -43.644622
PC14 -27486.608967   2102.577145   4146.958637    467.105338
PC16  -3267.425820  29659.639193 -29510.950844    127.056006
PC19  26039.310395  -8524.778750   5396.303415    873.227612
PC20  25292.183225   3317.409739 -11337.124970   -899.975190
PC21  -9163.441314 -13986.123498  22360.223052   -221.550906
PC22  11809.177388 -15897.539845  19681.419164   -973.489884
PC23 -10484.240944  25826.120588  -1358.005242   -930.428034
PC24 -14373.248357  -7911.636845 -22582.185397   -959.655408
PC25 -17356.105165  14219.049212 -16613.054453   -742.205797
PC26  -4075.913835 -22776.217736 -15588.021951    743.240916
PC27  13721.579336  23489.475708   6156.670264    717.275494
PC28  -1717.995792  19560.624247  19827.427427     62.331578
PC29  16555.249241  -4382.392903 -22042.525538    549.520840
PC30  21899.706768  13654.139957 -10595.533358    497.911960
PC32   9276.435336  13907.807150 -22325.282234   -962.655664
PC33 -26007.075024   8597.692753  -5263.307569   -965.932906
PC34 -21960.169908 -12911.338246  11409.294624   -412.064171
PC35   1958.215896 -19127.193832 -20249.972561    256.557819
PC36  17752.584730 -13278.545864  16970.711602   -963.826163
PC37   2675.366752  23557.479533  14747.014242   -916.016287
PC38 -17775.746393  37884.068471   5762.320275    229.444976
PC39  -7705.209864  25593.216773 -32541.132190     34.971103
PC40 -22419.055686  21157.344784  28665.764094    265.895225
PC41 -12232.331521  15865.391685 -19368.111387   -965.856458
PC42 -24741.185919  -4067.063484  12274.841768   -961.546791
PC43 -17081.853750   3681.677779  21750.897536   -926.362029
PC44 -14370.688612 -23086.479625  -6363.674437    647.329434
PC45  10295.985429 -25902.904103   1097.931872    747.110241
PC46  14898.494455   6280.446634  22746.935211   -304.216533
PE02  -2088.012509  20628.241730  21126.138673    296.719015
PE03   9748.264399  18854.514389 -20631.647549   -554.316293
PE04 -25668.529098 -13473.430990   5988.587367  -1019.668757
PE05 -12254.907365  13255.945297 -23447.699463   -185.190843
PE07  26795.154821    -45.686574  12602.188405   -664.685749
PE08  25887.230681  13182.195576  -5708.219033   -522.601056
PE09 -26700.355703    159.449780 -12749.889034   -505.123890
PE10 -16736.758405  -8380.737318  22921.746295   -510.552509
PE11 -15700.246937   3679.974860  24809.691147   3783.657191
PE12 -15123.698115 -18539.738143  17439.767415   4632.754082
PE13  15774.567636  -2932.998348 -24873.862381    428.429464
PE14  19686.739238  18618.345894   7777.608797  -1835.452554
PE15  15077.278650  18617.193559 -17375.464224    747.992303
PE18  -7717.083212 -21531.897447 -17601.644644  -1493.658401
PE19  -7089.275404 -18671.252290  21859.909576  -4027.150596
PE21  18311.437927 -22118.966956  -7183.966121   -731.972754
PE24 -24912.496462   9819.073119 -12655.743924   -594.075690
PE25 -18497.537998  22049.664026   6928.408044   -572.570949
PE26   6806.685535 -23296.695968 -16947.265009  -1100.408219
PE27  24920.121426 -10919.585056  11648.404660   -290.040533
PE30  16056.095124   7574.549671  23671.441283   -479.620159
PE31 -16810.549196  -6594.767595 -23450.968968   -496.022882
PE33  -5493.257472 -29092.578189   -331.338888   -457.020624
PE34   5675.393040  29050.953968    121.110744   -515.134581
PE36  -7213.259432  22581.279606  17716.331716   -368.244442
PG01 -13177.741845   9329.300398  20713.791778    371.395920
PG02  13958.099258  13893.695642 -17098.003997   -653.274926
PG03 -23027.825228  12620.164920   3435.270222   -230.203582
PG04 -20098.106607   2847.403372 -17162.730583   -170.732213
PG05  20862.912104   -824.080671 -16669.118931    -80.475255
PG06   5787.337066  25055.959777  -6411.460966    288.959808
PG07  -6098.013487  23161.551184 -10522.829440    321.576225
PG08 -24598.022791  -4096.662817   9603.947128    -66.419099
PG09 -10736.397911  11699.126672 -21357.617947   -339.557531
PG10   3155.294166 -17988.002119  19324.930578   -400.406352
PG12  24112.221280  -8464.356500   6734.918973   -209.610515
PG13  23014.706538  13102.597634   2858.583463    304.802106
PG14  -4984.831896  18437.823953  18416.094949   -106.338927
PG15  24783.371573    978.631645   9509.778326    -64.233448
PG16 -18168.556861  -5041.789741 -19159.835217   -497.452346
PG17   6379.464307  18145.755357  18724.294969    607.951802
PG18   6738.735393 -22953.480610 -11427.854067    180.134020
PG19  13507.110228  18830.674370  12899.734490    152.322427
PG20  14053.718104   7850.824350 -21090.690248    515.544696
PG21 -15846.827849  -2429.738609  21902.300090    160.879145
PG22 -15565.050096 -18619.554254  11416.104732    252.990665
PG23  13633.363885 -19528.305734  11642.727226    -19.301789
PG24  14945.892877  -5102.474885  21024.130562    247.548908
PG25  18742.881296 -17752.447533  -5882.230605    319.830229
PG26  -8908.758460 -12997.209432 -21462.015792    202.974317
PG27 -23376.190863 -12945.468377  -1948.601481    196.070042
PG28   3711.055148  15194.750464  22003.668143    364.030417
PG29  11997.732047  -9758.870844 -21654.568595   -509.618305
PG30   -224.922852  26334.692065  -2069.497339   -526.372159
PG31  -7387.887373 -23658.700859  -9005.464151   -176.012846
PG32  -9718.050991 -18058.818553  17124.081737   -118.542698
PJ02 -28362.800145  31288.966639   5939.699568     -3.198145
PJ03 -25371.073505  23516.552498  29185.432586     -1.905202
PR01  25508.677739   -102.456990   -651.876108      8.348593
PR02  16837.575560  -7977.472419  17439.560290    517.272988
PR03  -1407.357315 -10951.668730  23046.084613     55.984654
PR04 -18490.129731  -7640.786606  15861.897078    139.666867
PR05 -25516.933976   -322.169670    -86.255358     92.209941
PR07   2127.902174  10895.001838 -22918.782345     34.600436
PR08  18640.454754   7560.681982 -15608.482936    -64.921864
PR09 -14231.552400  20556.152290  -4840.982573     53.011349
PR11   5869.433349  11008.493546  22255.670633     39.878462
PR12  14863.146935  -7104.389703  19491.991027     18.243510
PR13  14628.494695 -19978.724712   6110.532961    -21.759814
PR14   5578.843866 -21654.271494 -12280.410358     77.182606
PR15  -6358.847357 -10407.956933 -22386.191643     96.409191
PR17  -6645.581389 -22028.000375 -10974.222335    522.742801
PR18 -14211.409797 -20420.225395   5775.850073    115.573485
PR19 -14317.194992  -9483.459999  18857.453426   -187.627688
PR20  -5748.934109  10592.133730  22476.387326    -69.819014
PR21   7481.156748  22420.092082   9615.236125   -298.183162
PR22  14250.276995  20018.066064  -6666.964839   -180.749223
PR24   5423.188774 -11595.511919 -22050.153372     91.918095
EOF
